*******************************************************************************
JPL/HORIZONS                127 Johanna (A872 VB)          2023-Sep-04 11:04:32
Rec #:     127 (+COV) Soln.date: 2023-Aug-21_20:21:23   # obs: 5121 (1893-2023)
 
IAU76/J2000 helio. ecliptic osc. elements (au, days, deg., period=Julian yrs):
 
  EPOCH=  2457022.5 ! 2014-Dec-31.00 (TDB)         Residual RMS= .29695
   EC= .06610532612479841  QR= 2.572537119599942   TP= 2457287.9064176711
   OM= 31.1958868231695    W=  95.09695843829134   IN= 8.241462435814221
   A= 2.754633034713843    MA= 302.7836872219802   ADIST= 2.936728949827745
   PER= 4.57197            N= .21557999            ANGMOM= .028488024
   DAN= 2.7588             DDN= 2.72658            L= 126.3457475
   B= 8.2086486            MOID= 1.60403001        TP= 2015-Sep-22.4064176711
 
Asteroid physical parameters (km, seconds, rotational period in hours):
   GM= n.a.                RAD= 61.                ROTPER= 12.7988
   H= 8.6                  G= .150                 B-V= n.a.
                           ALBEDO= .042            STYP= Ch

ASTEROID comments: 
1: soln ref.= JPL#132, OCC=0
2: source=ORB
*******************************************************************************


*******************************************************************************
Ephemeris / API_USER Mon Sep  4 11:04:32 2023 Pasadena, USA      / Horizons
*******************************************************************************
Target body name: 127 Johanna (A872 VB)           {source: JPL#132}
Center body name: Solar System Barycenter (0)     {source: DE441}
Center-site name: BODY CENTER
*******************************************************************************
Start time      : A.D. 2023-Aug-12 00:00:00.0000 TDB
Stop  time      : A.D. 2023-Aug-13 00:00:00.0000 TDB
Step-size       : 2880 minutes
*******************************************************************************
Center geodetic : 0.0, 0.0, 0.0                   {E-lon(deg),Lat(deg),Alt(km)}
Center cylindric: 0.0, 0.0, 0.0                   {E-lon(deg),Dxy(km),Dz(km)}
Center radii    : (undefined)
Small perturbers: Yes                             {source: SB441-N16}
Output units    : KM-S
Calendar mode   : Mixed Julian/Gregorian
Output type     : GEOMETRIC cartesian states
Output format   : 2 (position and velocity)
Reference frame : Ecliptic of J2000.0
*******************************************************************************
Initial IAU76/J2000 heliocentric ecliptic osculating elements (au, days, deg.):
  EPOCH=  2457022.5 ! 2014-Dec-31.00 (TDB)         Residual RMS= .29695        
   EC= .06610532612479841  QR= 2.572537119599942   TP= 2457287.9064176711      
   OM= 31.1958868231695    W=  95.09695843829134   IN= 8.241462435814221       
  Equivalent ICRF heliocentric cartesian coordinates (au, au/d):
   X= 1.241031413692456E+00  Y= 2.077365657848270E+00  Z= 1.116523839624842E+00
  VX=-9.713602055031290E-03 VY= 3.464160981623132E-03 VZ= 2.880086647051618E-03
Asteroid physical parameters (km, seconds, rotational period in hours):        
   GM= n.a.                RAD= 61.                ROTPER= 12.7988             
   H= 8.6                  G= .150                 B-V= n.a.                   
                           ALBEDO= .042            STYP= Ch                    
*******************************************************************************
JDTDB
   X     Y     Z
   VX    VY    VZ
*******************************************************************************
$$SOE
2460168.500000000 = A.D. 2023-Aug-12 00:00:00.0000 TDB 
 X = 3.913056463420356E+08 Y = 1.409044425863515E+08 Z =-1.186654727764781E+07
 VX=-6.923724443439940E+00 VY= 1.610961911733476E+01 VZ= 2.519157456323579E+00
$$EOE
*******************************************************************************
 
TIME

  Barycentric Dynamical Time ("TDB" or T_eph) output was requested. This
continuous coordinate time is equivalent to the relativistic proper time
of a clock at rest in a reference frame co-moving with the solar system
barycenter but outside the system's gravity well. It is the independent
variable in the solar system relativistic equations of motion.

  TDB runs at a uniform rate of one SI second per second and is independent
of irregularities in Earth's rotation.
 
CALENDAR SYSTEM

  Mixed calendar mode was active such that calendar dates after AD 1582-Oct-15
(if any) are in the modern Gregorian system. Dates prior to 1582-Oct-5 (if any)
are in the Julian calendar system, which is automatically extended for dates
prior to its adoption on 45-Jan-1 BC.  The Julian calendar is useful for
matching historical dates. The Gregorian calendar more accurately corresponds
to the Earth's orbital motion and seasons. A "Gregorian-only" calendar mode is
available if such physical events are the primary interest.

REFERENCE FRAME AND COORDINATES

  Ecliptic at the standard reference epoch

    Reference epoch: J2000.0
    X-Y plane: adopted Earth orbital plane at the reference epoch
               Note: IAU76 obliquity of 84381.448 arcseconds wrt ICRF X-Y plane
    X-axis   : ICRF
    Z-axis   : perpendicular to the X-Y plane in the directional (+ or -) sense
               of Earth's north pole at the reference epoch.

  Symbol meaning:

    JDTDB    Julian Day Number, Barycentric Dynamical Time
      X      X-component of position vector (km)
      Y      Y-component of position vector (km)
      Z      Z-component of position vector (km)
      VX     X-component of velocity vector (km/sec)                           
      VY     Y-component of velocity vector (km/sec)                           
      VZ     Z-component of velocity vector (km/sec)                           

ABERRATIONS AND CORRECTIONS

 Geometric state vectors have NO corrections or aberrations applied.

Computations by ...

    Solar System Dynamics Group, Horizons On-Line Ephemeris System
    4800 Oak Grove Drive, Jet Propulsion Laboratory
    Pasadena, CA  91109   USA

    General site: https://ssd.jpl.nasa.gov/
    Mailing list: https://ssd.jpl.nasa.gov/email_list.html
    System news : https://ssd.jpl.nasa.gov/horizons/news.html
    User Guide  : https://ssd.jpl.nasa.gov/horizons/manual.html
    Connect     : browser        https://ssd.jpl.nasa.gov/horizons/app.html#/x
                  API            https://ssd-api.jpl.nasa.gov/doc/horizons.html
                  command-line   telnet ssd.jpl.nasa.gov 6775
                  e-mail/batch   https://ssd.jpl.nasa.gov/ftp/ssd/hrzn_batch.txt
                  scripts        https://ssd.jpl.nasa.gov/ftp/ssd/SCRIPTS
    Author      : Jon.D.Giorgini@jpl.nasa.gov
*******************************************************************************
